MALLIGYONG-1            
1 58400U 23179A   24251.51014340  .00013446  00000+0  58860-3 0  9998
2 58400  97.3896 136.9740 0002541 132.2363 227.9089 15.22154876 44245
